1 42831U 17042G   18131.37592770  .00000108  00000-0  16441-4 0  9995
2 42831  97.6001  35.1316 0013342 328.3506  31.6910 14.90837280 44844